satellites:
- satellite_id: sat_001
  norad_catalog_id: 28649
  tle_line1: 1 28649U 05017A   26103.78459344  .00000718  00000+0  78137-4 0  9993
  tle_line2: 2 28649  97.5369 129.7615 0000594  88.5323 271.5964 14.90885377134226
  sensor:
    sensor_type: visible
  attitude_model:
    max_slew_velocity_deg_per_s: 1.8
    max_slew_acceleration_deg_per_s2: 0.4
    settling_time_s: 2.0
    max_off_nadir_deg: 30.0
  resource_model:
    battery_capacity_wh: 1300.0
    initial_battery_wh: 800.0
    idle_power_w: 20.0
    imaging_power_w: 420.0
    slew_power_w: 360.0
    sunlit_charge_power_w: 85.0
- satellite_id: sat_002
  norad_catalog_id: 33396
  tle_line1: 1 33396U 08049A   26103.92431574  .00000228  00000+0  12693-3 0  9997
  tle_line2: 2 33396  98.5635 163.2775 0001215  96.0005 264.1311 14.20124562908846
  sensor:
    sensor_type: visible
  attitude_model:
    max_slew_velocity_deg_per_s: 1.0
    max_slew_acceleration_deg_per_s2: 0.25
    settling_time_s: 3.0
    max_off_nadir_deg: 25.0
  resource_model:
    battery_capacity_wh: 1600.0
    initial_battery_wh: 1000.0
    idle_power_w: 25.0
    imaging_power_w: 480.0
    slew_power_w: 280.0
    sunlit_charge_power_w: 100.0
- satellite_id: sat_003
  norad_catalog_id: 35681
  tle_line1: 1 35681U 09041A   26103.88486025  .00000736  00000+0  11600-3 0  9996
  tle_line2: 2 35681  97.7323 263.9278 0002534  65.1442 295.0031 14.75171584897400
  sensor:
    sensor_type: visible
  attitude_model:
    max_slew_velocity_deg_per_s: 1.8
    max_slew_acceleration_deg_per_s2: 0.4
    settling_time_s: 2.0
    max_off_nadir_deg: 30.0
  resource_model:
    battery_capacity_wh: 1300.0
    initial_battery_wh: 800.0
    idle_power_w: 20.0
    imaging_power_w: 420.0
    slew_power_w: 360.0
    sunlit_charge_power_w: 85.0
- satellite_id: sat_004
  norad_catalog_id: 36795
  tle_line1: 1 36795U 10035A   26103.91725973  .00000606  00000+0  89742-4 0  9999
  tle_line2: 2 36795  98.0028 154.8560 0012216  44.0868 316.1314 14.78652641850354
  sensor:
    sensor_type: visible
  attitude_model:
    max_slew_velocity_deg_per_s: 1.0
    max_slew_acceleration_deg_per_s2: 0.25
    settling_time_s: 3.0
    max_off_nadir_deg: 25.0
  resource_model:
    battery_capacity_wh: 1600.0
    initial_battery_wh: 1000.0
    idle_power_w: 25.0
    imaging_power_w: 480.0
    slew_power_w: 280.0
    sunlit_charge_power_w: 100.0
- satellite_id: sat_005
  norad_catalog_id: 37387
  tle_line1: 1 37387U 11015A   26103.89999973 -.00000252  00000+0 -94795-4 0  9999
  tle_line2: 2 37387  98.7689 171.7738 0012401  84.9704 275.2889 14.21615505777047
  sensor:
    sensor_type: infrared
  attitude_model:
    max_slew_velocity_deg_per_s: 0.9
    max_slew_acceleration_deg_per_s2: 0.15
    settling_time_s: 3.5
    max_off_nadir_deg: 20.0
  resource_model:
    battery_capacity_wh: 1800.0
    initial_battery_wh: 1000.0
    idle_power_w: 30.0
    imaging_power_w: 680.0
    slew_power_w: 320.0
    sunlit_charge_power_w: 115.0
- satellite_id: sat_006
  norad_catalog_id: 38012
  tle_line1: 1 38012U 11076F   26103.92452051  .00000031  00000+0  16420-4 0  9999
  tle_line2: 2 38012  98.1996 179.8836 0001241  74.0617  41.3226 14.58569444762624
  sensor:
    sensor_type: visible
  attitude_model:
    max_slew_velocity_deg_per_s: 1.8
    max_slew_acceleration_deg_per_s2: 0.4
    settling_time_s: 2.0
    max_off_nadir_deg: 30.0
  resource_model:
    battery_capacity_wh: 1300.0
    initial_battery_wh: 800.0
    idle_power_w: 20.0
    imaging_power_w: 420.0
    slew_power_w: 360.0
    sunlit_charge_power_w: 85.0
- satellite_id: sat_007
  norad_catalog_id: 38038
  tle_line1: 1 38038U 11079A   26103.99821456  .00000176  00000+0  72099-4 0  9990
  tle_line2: 2 38038  98.4114 172.6384 0007359 132.7085 282.0682 14.38160980749987
  sensor:
    sensor_type: visible
  attitude_model:
    max_slew_velocity_deg_per_s: 1.0
    max_slew_acceleration_deg_per_s2: 0.25
    settling_time_s: 3.0
    max_off_nadir_deg: 25.0
  resource_model:
    battery_capacity_wh: 1600.0
    initial_battery_wh: 1000.0
    idle_power_w: 25.0
    imaging_power_w: 480.0
    slew_power_w: 280.0
    sunlit_charge_power_w: 100.0
- satellite_id: sat_008
  norad_catalog_id: 38755
  tle_line1: 1 38755U 12047A   26103.91749117  .00000053  00000+0  21261-4 0  9996
  tle_line2: 2 38755  98.2161 171.9661 0001299  83.6582 276.4765 14.58587911723683
  sensor:
    sensor_type: visible
  attitude_model:
    max_slew_velocity_deg_per_s: 1.0
    max_slew_acceleration_deg_per_s2: 0.25
    settling_time_s: 3.0
    max_off_nadir_deg: 25.0
  resource_model:
    battery_capacity_wh: 1600.0
    initial_battery_wh: 1000.0
    idle_power_w: 25.0
    imaging_power_w: 480.0
    slew_power_w: 280.0
    sunlit_charge_power_w: 100.0
- satellite_id: sat_009
  norad_catalog_id: 39019
  tle_line1: 1 39019U 12068A   26103.93709536  .00000156  00000+0  43477-4 0  9993
  tle_line2: 2 39019  98.1967 179.8664 0001151  77.9509 282.1820 14.58557094711482
  sensor:
    sensor_type: visible
  attitude_model:
    max_slew_velocity_deg_per_s: 1.0
    max_slew_acceleration_deg_per_s2: 0.25
    settling_time_s: 3.0
    max_off_nadir_deg: 25.0
  resource_model:
    battery_capacity_wh: 1600.0
    initial_battery_wh: 1000.0
    idle_power_w: 25.0
    imaging_power_w: 480.0
    slew_power_w: 280.0
    sunlit_charge_power_w: 100.0
- satellite_id: sat_010
  norad_catalog_id: 39084
  tle_line1: 1 39084U 13008A   26103.95632536  .00000202  00000+0  54735-4 0  9998
  tle_line2: 2 39084  98.1863 175.0919 0001171  93.9204 266.2128 14.57117273688546
  sensor:
    sensor_type: visible
  attitude_model:
    max_slew_velocity_deg_per_s: 1.0
    max_slew_acceleration_deg_per_s2: 0.25
    settling_time_s: 3.0
    max_off_nadir_deg: 25.0
  resource_model:
    battery_capacity_wh: 1600.0
    initial_battery_wh: 1000.0
    idle_power_w: 25.0
    imaging_power_w: 480.0
    slew_power_w: 280.0
    sunlit_charge_power_w: 100.0
- satellite_id: sat_011
  norad_catalog_id: 39150
  tle_line1: 1 39150U 13018A   26103.95510082  .00000136  00000+0  26743-4 0  9998
  tle_line2: 2 39150  97.9125 177.3184 0018541 111.2643 249.0549 14.76540554698761
  sensor:
    sensor_type: visible
  attitude_model:
    max_slew_velocity_deg_per_s: 1.0
    max_slew_acceleration_deg_per_s2: 0.25
    settling_time_s: 3.0
    max_off_nadir_deg: 25.0
  resource_model:
    battery_capacity_wh: 1600.0
    initial_battery_wh: 1000.0
    idle_power_w: 25.0
    imaging_power_w: 480.0
    slew_power_w: 280.0
    sunlit_charge_power_w: 100.0
- satellite_id: sat_012
  norad_catalog_id: 40053
  tle_line1: 1 40053U 14034A   26103.93758432  .00000121  00000+0  34006-4 0  9997
  tle_line2: 2 40053  98.0684 168.0716 0001643  85.6600 274.4789 14.60901965627756
  sensor:
    sensor_type: visible
  attitude_model:
    max_slew_velocity_deg_per_s: 1.0
    max_slew_acceleration_deg_per_s2: 0.25
    settling_time_s: 3.0
    max_off_nadir_deg: 25.0
  resource_model:
    battery_capacity_wh: 1600.0
    initial_battery_wh: 1000.0
    idle_power_w: 25.0
    imaging_power_w: 480.0
    slew_power_w: 280.0
    sunlit_charge_power_w: 100.0
- satellite_id: sat_013
  norad_catalog_id: 40072
  tle_line1: 1 40072U 14037D   26103.43279908  .00000992  00000+0  11517-3 0  9999
  tle_line2: 2 40072  98.3782  58.7383 0006724 120.9385 239.2492 14.87857182636336
  sensor:
    sensor_type: infrared
  attitude_model:
    max_slew_velocity_deg_per_s: 0.9
    max_slew_acceleration_deg_per_s2: 0.15
    settling_time_s: 3.5
    max_off_nadir_deg: 20.0
  resource_model:
    battery_capacity_wh: 1800.0
    initial_battery_wh: 1000.0
    idle_power_w: 30.0
    imaging_power_w: 680.0
    slew_power_w: 320.0
    sunlit_charge_power_w: 115.0
- satellite_id: sat_014
  norad_catalog_id: 41599
  tle_line1: 1 41599U 16040A   26103.90892410  .00001887  00000+0  92644-4 0  9996
  tle_line2: 2 41599  97.4545 164.7499 0009098   5.9270 354.2071 15.19282316543959
  sensor:
    sensor_type: visible
  attitude_model:
    max_slew_velocity_deg_per_s: 1.8
    max_slew_acceleration_deg_per_s2: 0.4
    settling_time_s: 2.0
    max_off_nadir_deg: 30.0
  resource_model:
    battery_capacity_wh: 1300.0
    initial_battery_wh: 800.0
    idle_power_w: 20.0
    imaging_power_w: 420.0
    slew_power_w: 360.0
    sunlit_charge_power_w: 85.0
- satellite_id: sat_015
  norad_catalog_id: 41727
  tle_line1: 1 41727U 16049A   26103.97877453 -.00000081  00000+0 -11297-4 0  9997
  tle_line2: 2 41727  98.4045 112.7286 0001423  67.2388 292.8952 14.42224433509396
  sensor:
    sensor_type: visible
  attitude_model:
    max_slew_velocity_deg_per_s: 1.8
    max_slew_acceleration_deg_per_s2: 0.4
    settling_time_s: 2.0
    max_off_nadir_deg: 30.0
  resource_model:
    battery_capacity_wh: 1300.0
    initial_battery_wh: 800.0
    idle_power_w: 20.0
    imaging_power_w: 420.0
    slew_power_w: 360.0
    sunlit_charge_power_w: 85.0
- satellite_id: sat_016
  norad_catalog_id: 41772
  tle_line1: 1 41772U 16058C   26103.85106001  .00004527  00000+0  13948-3 0  9999
  tle_line2: 2 41772  97.0546 147.3801 0002652 169.8149 190.3149 15.34090094533880
  sensor:
    sensor_type: visible
  attitude_model:
    max_slew_velocity_deg_per_s: 1.0
    max_slew_acceleration_deg_per_s2: 0.25
    settling_time_s: 3.0
    max_off_nadir_deg: 25.0
  resource_model:
    battery_capacity_wh: 1600.0
    initial_battery_wh: 1000.0
    idle_power_w: 25.0
    imaging_power_w: 480.0
    slew_power_w: 280.0
    sunlit_charge_power_w: 100.0
- satellite_id: sat_017
  norad_catalog_id: 42063
  tle_line1: 1 42063U 17013A   26103.94175150 -.00000047  00000+0 -13025-5 0  9999
  tle_line2: 2 42063  98.5661 179.6296 0001235  93.6242 266.5083 14.30820285475457
  sensor:
    sensor_type: visible
  attitude_model:
    max_slew_velocity_deg_per_s: 1.8
    max_slew_acceleration_deg_per_s2: 0.4
    settling_time_s: 2.0
    max_off_nadir_deg: 30.0
  resource_model:
    battery_capacity_wh: 1300.0
    initial_battery_wh: 800.0
    idle_power_w: 20.0
    imaging_power_w: 420.0
    slew_power_w: 360.0
